CCSDS_OMM_VERS = 2.0
CREATION_DATE  = 
ORIGINATOR     = 

OBJECT_NAME    = DELTA 1 R/B
OBJECT_ID      = 1989-089B
CENTER_NAME    = EARTH
REF_FRAME      = TEME
TIME_SYSTEM    = UTC
MEAN_ELEMENT_THEORY = SGP/SGP4

EPOCH          = 2025-11-07T14:20:11.991264
MEAN_MOTION    = 14.50526944
ECCENTRICITY   = .0070008
INCLINATION    = 97.0787
RA_OF_ASC_NODE = 173.3992
ARG_OF_PERICENTER = 147.3138
MEAN_ANOMALY   = 213.2422

EPHEMERIS_TYPE = 0
CLASSIFICATION_TYPE = U
NORAD_CAT_ID   = 20323
ELEMENT_SET_NO = 999
REV_AT_EPOCH   = 87803
BSTAR          = .14698E-3
MEAN_MOTION_DOT = .559E-5
MEAN_MOTION_DDOT = 0

CCSDS_OMM_VERS = 2.0
CREATION_DATE  = 
ORIGINATOR     = 

OBJECT_NAME    = ARIANE 40 R/B
OBJECT_ID      = 1990-005H
CENTER_NAME    = EARTH
REF_FRAME      = TEME
TIME_SYSTEM    = UTC
MEAN_ELEMENT_THEORY = SGP/SGP4

EPOCH          = 2025-11-07T15:27:21.034944
MEAN_MOTION    = 14.39756134
ECCENTRICITY   = .0009656
INCLINATION    = 98.3292
RA_OF_ASC_NODE = 10.8058
ARG_OF_PERICENTER = 205.9948
MEAN_ANOMALY   = 154.0756

EPHEMERIS_TYPE = 0
CLASSIFICATION_TYPE = U
NORAD_CAT_ID   = 20443
ELEMENT_SET_NO = 999
REV_AT_EPOCH   = 87524
BSTAR          = .17865E-3
MEAN_MOTION_DOT = .518E-5
MEAN_MOTION_DDOT = 0

CCSDS_OMM_VERS = 2.0
CREATION_DATE  = 
ORIGINATOR     = 

OBJECT_NAME    = DELTA 2 R/B(1)
OBJECT_ID      = 1990-008B
CENTER_NAME    = EARTH
REF_FRAME      = TEME
TIME_SYSTEM    = UTC
MEAN_ELEMENT_THEORY = SGP/SGP4

EPOCH          = 2025-11-06T23:34:12.210528
MEAN_MOTION    = 15.41884288
ECCENTRICITY   = .01185593
INCLINATION    = 35.6080
RA_OF_ASC_NODE = 250.8578
ARG_OF_PERICENTER = 213.3905
MEAN_ANOMALY   = 145.9307

EPHEMERIS_TYPE = 0
CLASSIFICATION_TYPE = U
NORAD_CAT_ID   = 20453
ELEMENT_SET_NO = 999
REV_AT_EPOCH   = 90710
BSTAR          = .63843E-3
MEAN_MOTION_DOT = .36267E-3
MEAN_MOTION_DDOT = 0

CCSDS_OMM_VERS = 2.0
CREATION_DATE  = 
ORIGINATOR     = 

OBJECT_NAME    = COSMOS 2058
OBJECT_ID      = 1990-010A
CENTER_NAME    = EARTH
REF_FRAME      = TEME
TIME_SYSTEM    = UTC
MEAN_ELEMENT_THEORY = SGP/SGP4

EPOCH          = 2025-11-07T18:35:53.400768
MEAN_MOTION    = 15.10065600
ECCENTRICITY   = .0011448
INCLINATION    = 82.4663
RA_OF_ASC_NODE = 167.4263
ARG_OF_PERICENTER = 37.6162
MEAN_ANOMALY   = 322.5866

EPHEMERIS_TYPE = 0
CLASSIFICATION_TYPE = U
NORAD_CAT_ID   = 20465
ELEMENT_SET_NO = 999
REV_AT_EPOCH   = 92383
BSTAR          = .32973E-3
MEAN_MOTION_DOT = .5401E-4
MEAN_MOTION_DDOT = 0

CCSDS_OMM_VERS = 2.0
CREATION_DATE  = 
ORIGINATOR     = 

OBJECT_NAME    = SL-14 R/B
OBJECT_ID      = 1990-010B
CENTER_NAME    = EARTH
REF_FRAME      = TEME
TIME_SYSTEM    = UTC
MEAN_ELEMENT_THEORY = SGP/SGP4

EPOCH          = 2025-11-07T14:28:09.513696
MEAN_MOTION    = 14.83422163
ECCENTRICITY   = .0019403
INCLINATION    = 82.5051
RA_OF_ASC_NODE = 22.0414
ARG_OF_PERICENTER = 346.6188
MEAN_ANOMALY   = 13.4509

EPHEMERIS_TYPE = 0
CLASSIFICATION_TYPE = U
NORAD_CAT_ID   = 20466
ELEMENT_SET_NO = 999
REV_AT_EPOCH   = 91038
BSTAR          = .84523E-4
MEAN_MOTION_DOT = .719E-5
MEAN_MOTION_DDOT = 0

CCSDS_OMM_VERS = 2.0
CREATION_DATE  = 
ORIGINATOR     = 

OBJECT_NAME    = SL-14 R/B
OBJECT_ID      = 1990-018B
CENTER_NAME    = EARTH
REF_FRAME      = TEME
TIME_SYSTEM    = UTC
MEAN_ELEMENT_THEORY = SGP/SGP4

EPOCH          = 2025-11-07T12:04:44.910912
MEAN_MOTION    = 14.81995630
ECCENTRICITY   = .0017594
INCLINATION    = 82.5212
RA_OF_ASC_NODE = 337.3031
ARG_OF_PERICENTER = 130.8655
MEAN_ANOMALY   = 229.4088

EPHEMERIS_TYPE = 0
CLASSIFICATION_TYPE = U
NORAD_CAT_ID   = 20511
ELEMENT_SET_NO = 999
REV_AT_EPOCH   = 90448
BSTAR          = .76811E-4
MEAN_MOTION_DOT = .634E-5
MEAN_MOTION_DDOT = 0

CCSDS_OMM_VERS = 2.0
CREATION_DATE  = 
ORIGINATOR     = 

OBJECT_NAME    = HST
OBJECT_ID      = 1990-037B
CENTER_NAME    = EARTH
REF_FRAME      = TEME
TIME_SYSTEM    = UTC
MEAN_ELEMENT_THEORY = SGP/SGP4

EPOCH          = 2025-11-07T15:31:06.197664
MEAN_MOTION    = 15.27363839
ECCENTRICITY   = .0001573
INCLINATION    = 28.4657
RA_OF_ASC_NODE = 151.2306
ARG_OF_PERICENTER = 189.3794
MEAN_ANOMALY   = 170.6772

EPHEMERIS_TYPE = 0
CLASSIFICATION_TYPE = U
NORAD_CAT_ID   = 20580
ELEMENT_SET_NO = 999
REV_AT_EPOCH   = 75462
BSTAR          = .35134E-3
MEAN_MOTION_DOT = .9915E-4
MEAN_MOTION_DDOT = 0

CCSDS_OMM_VERS = 2.0
CREATION_DATE  = 
ORIGINATOR     = 

OBJECT_NAME    = SL-16 R/B
OBJECT_ID      = 1990-046B
CENTER_NAME    = EARTH
REF_FRAME      = TEME
TIME_SYSTEM    = UTC
MEAN_ELEMENT_THEORY = SGP/SGP4

EPOCH          = 2025-11-07T16:22:30.486720
MEAN_MOTION    = 14.14991933
ECCENTRICITY   = .0012346
INCLINATION    = 70.9985
RA_OF_ASC_NODE = 194.1443
ARG_OF_PERICENTER = 137.1799
MEAN_ANOMALY   = 223.0287

EPHEMERIS_TYPE = 0
CLASSIFICATION_TYPE = U
NORAD_CAT_ID   = 20625
ELEMENT_SET_NO = 999
REV_AT_EPOCH   = 83113
BSTAR          = -.5512E-4
MEAN_MOTION_DOT = -.154E-5
MEAN_MOTION_DDOT = 0

CCSDS_OMM_VERS = 2.0
CREATION_DATE  = 
ORIGINATOR     = 

OBJECT_NAME    = COSMOS 2084
OBJECT_ID      = 1990-055A
CENTER_NAME    = EARTH
REF_FRAME      = TEME
TIME_SYSTEM    = UTC
MEAN_ELEMENT_THEORY = SGP/SGP4

EPOCH          = 2025-11-07T16:22:17.518944
MEAN_MOTION    = 15.04700256
ECCENTRICITY   = .0037432
INCLINATION    = 62.7924
RA_OF_ASC_NODE = 31.4190
ARG_OF_PERICENTER = 170.6034
MEAN_ANOMALY   = 189.5775

EPHEMERIS_TYPE = 0
CLASSIFICATION_TYPE = U
NORAD_CAT_ID   = 20663
ELEMENT_SET_NO = 999
REV_AT_EPOCH   = 91795
BSTAR          = .37771E-3
MEAN_MOTION_DOT = .5223E-4
MEAN_MOTION_DDOT = 0

CCSDS_OMM_VERS = 2.0
CREATION_DATE  = 
ORIGINATOR     = 

OBJECT_NAME    = SL-6 R/B(2)
OBJECT_ID      = 1990-055D
CENTER_NAME    = EARTH
REF_FRAME      = TEME
TIME_SYSTEM    = UTC
MEAN_ELEMENT_THEORY = SGP/SGP4

EPOCH          = 2025-11-07T08:54:48.636864
MEAN_MOTION    = 15.02807418
ECCENTRICITY   = .0010715
INCLINATION    = 62.7839
RA_OF_ASC_NODE = 309.5683
ARG_OF_PERICENTER = 278.1407
MEAN_ANOMALY   = 81.8476

EPHEMERIS_TYPE = 0
CLASSIFICATION_TYPE = U
NORAD_CAT_ID   = 20666
ELEMENT_SET_NO = 999
REV_AT_EPOCH   = 91980
BSTAR          = .2867E-3
MEAN_MOTION_DOT = .3666E-4
MEAN_MOTION_DDOT = 0

CCSDS_OMM_VERS = 2.0
CREATION_DATE  = 
ORIGINATOR     = 

OBJECT_NAME    = SL-8 R/B
OBJECT_ID      = 1990-078B
CENTER_NAME    = EARTH
REF_FRAME      = TEME
TIME_SYSTEM    = UTC
MEAN_ELEMENT_THEORY = SGP/SGP4

EPOCH          = 2025-11-07T16:36:14.086944
MEAN_MOTION    = 14.84044262
ECCENTRICITY   = .0382164
INCLINATION    = 82.9070
RA_OF_ASC_NODE = 0.6258
ARG_OF_PERICENTER = 63.0903
MEAN_ANOMALY   = 300.8824

EPHEMERIS_TYPE = 0
CLASSIFICATION_TYPE = U
NORAD_CAT_ID   = 20775
ELEMENT_SET_NO = 999
REV_AT_EPOCH   = 79117
BSTAR          = .65823E-3
MEAN_MOTION_DOT = .21323E-3
MEAN_MOTION_DDOT = 0

CCSDS_OMM_VERS = 2.0
CREATION_DATE  = 
ORIGINATOR     = 

OBJECT_NAME    = SL-8 R/B
OBJECT_ID      = 1991-006B
CENTER_NAME    = EARTH
REF_FRAME      = TEME
TIME_SYSTEM    = UTC
MEAN_ELEMENT_THEORY = SGP/SGP4

EPOCH          = 2025-11-07T19:19:24.106368
MEAN_MOTION    = 13.77482484
ECCENTRICITY   = .0023065
INCLINATION    = 82.9407
RA_OF_ASC_NODE = 260.6990
ARG_OF_PERICENTER = 20.0598
MEAN_ANOMALY   = 5.0467

EPHEMERIS_TYPE = 0
CLASSIFICATION_TYPE = U
NORAD_CAT_ID   = 21088
ELEMENT_SET_NO = 999
REV_AT_EPOCH   = 74729
BSTAR          = .15005E-3
MEAN_MOTION_DOT = .165E-5
MEAN_MOTION_DDOT = 0

