DELTA 1 R/B             
1 20323U 89089B   25311.59736101  .00000559  00000+0  14698-3 0  9997
2 20323  97.0787 173.3992 0070008 147.3138 213.2422 14.50526944878038
ARIANE 40 R/B           
1 20443U 90005H   25311.64399346  .00000518  00000+0  17865-3 0  9996
2 20443  98.3292  10.8058 0009656 205.9948 154.0756 14.39756134875240
DELTA 2 R/B(1)          
1 20453U 90008B   25310.98208577  .00036267  00000+0  63843-3 0  9998
2 20453  35.6080 250.8578 0118559 213.3905 145.9307 15.41884288907100
COSMOS 2058             
1 20465U 90010A   25311.77492362  .00005401  00000+0  32973-3 0  9995
2 20465  82.4663 167.4263 0011448  37.6162 322.5866 15.10065600923831
SL-14 R/B               
1 20466U 90010B   25311.60288789  .00000719  00000+0  84523-4 0  9990
2 20466  82.5051  22.0414 0019403 346.6188  13.4509 14.83422163910384
SL-14 R/B               
1 20511U 90018B   25311.50329758  .00000634  00000+0  76811-4 0  9997
2 20511  82.5212 337.3031 0017594 130.8655 229.4088 14.81995630904489
HST                     
1 20580U 90037B   25311.64659951  .00009915  00000+0  35134-3 0  9993
2 20580  28.4657 151.2306 0001573 189.3794 170.6772 15.27363839754625
SL-16 R/B               
1 20625U 90046B   25311.68229730 -.00000154  00000+0 -55120-4 0  9991
2 20625  70.9985 194.1443 0012346 137.1799 223.0287 14.14991933831138
COSMOS 2084             
1 20663U 90055A   25311.68214721  .00005223  00000+0  37771-3 0  9998
2 20663  62.7924  31.4190 0037432 170.6034 189.5775 15.04700256917950
SL-6 R/B(2)             
1 20666U 90055D   25311.37139626  .00003666  00000+0  28670-3 0  9994
2 20666  62.7839 309.5683 0010715 278.1407  81.8476 15.02807418919801
SL-8 R/B                
1 20775U 90078B   25311.69182971  .00021323  00000+0  65823-3 0  9997
2 20775  82.9070   0.6258 0382164  63.0903 300.8824 14.84044262791170
SL-8 R/B                
1 21088U 91006B   25311.80514012  .00000165  00000+0  15005-3 0  9993
2 21088  82.9407 260.6990 0023065  20.0598   5.0467 13.77482484747292
